SL-16 R/B               
1 25400U 98043G   26047.47206262  .00000062  00000+0  44673-4 0  9998
2 25400  98.8219   0.6898 0010961  77.1669 283.0735 14.26044625435963
SL-16 R/B               
1 25407U 98045B   26046.95945802  .00000315  00000+0  18317-3 0  9995
2 25407  71.0088 227.2707 0005689  47.5138 312.6465 14.16188552424027
ISS (ZARYA)             
1 25544U 98067A   26047.40850648  .00009877  00000+0  18925-3 0  9992
2 25544  51.6319 177.5497 0011021 104.3585 255.8628 15.48642691553036
CZ-4B R/B               
1 25732U 99025C   26047.14945755  .00000059  00000+0  49137-4 0  9994
2 25732  98.6670  91.9365 0037875  48.1954  19.6314 14.18260921385117
OKEAN-O                 
1 25860U 99039A   26047.15700445  .00000767  00000+0  10752-3 0  9993
2 25860  97.9491 107.2623 0001811  81.6639 278.4778 14.80299640431203
SL-16 R/B               
1 25861U 99039B   26047.15720629  .00000647  00000+0  88903-4 0  9991
2 25861  98.0013 106.2806 0014068 332.1828  27.8631 14.81700648433673
DELTA 2 R/B             
1 25876U 99041E   26047.34530234  .00002147  00000+0  38268-3 0  9997
2 25876  51.7657  26.5187 0502240 285.3876  69.2117 14.11756969360017
HELIOS 1B               
1 25977U 99064A   26047.39209296  .00001899  00000+0  21539-3 0  9996
2 25977  98.1722 309.0073 0002313 103.0598 257.0876 14.87607527682095
TERRA                   
1 25994U 99068A   26047.41503767  .00000483  00000+0  10765-3 0  9999
2 25994  97.9640 101.6576 0001191 220.0031 197.3578 14.60991164391972
SL-16 R/B               
1 26070U 00006B   26047.46375787 -.00000174  00000+0 -64322-4 0  9991
2 26070  71.0024 142.4680 0018040 220.0565 139.9229 14.15818669345555
TITAN 4B R/B            
1 26474U 00047B   26047.49248784  .00003484  00000+0  22254-3 0  9995
2 26474  67.9887 100.1091 0037149  61.2493 299.2380 15.09374486389719
ENVISAT                 
1 27386U 02009A   26047.48395360  .00000130  00000+0  55814-4 0  9994
2 27386  98.3693   1.5911 0001357  86.8703  23.3584 14.39028810256128
